[
    {
        "Altitude(m)": 557848.9588265556,
        "Argument of Periapsis(deg)": 0.006622991110713501,
        "Eccentricity": 0.0,
        "Inclination(deg)": 53.0,
        "Latitude(deg)": -16.6503621908354,
        "Longitude(deg)": -178.72486798221877,
        "Mean Anomaly(deg)": -20.817507132422385,
        "RAAN(deg)": 294.99014336852804,
        "Satellite Name": "Starlink Shell 1 1318",
        "Satellite Number": 1318,
        "Semi-Major Axis(m)": 6931778.249405717,
        "Time(s)": 190
    },
    {
        "Altitude(m)": 557703.7407397851,
        "Argument of Periapsis(deg)": 0.0069715695902247375,
        "Eccentricity": 0.0,
        "Inclination(deg)": 53.0,
        "Latitude(deg)": -16.15964184292079,
        "Longitude(deg)": -178.35742480642244,
        "Mean Anomaly(deg)": -20.19067592886574,
        "RAAN(deg)": 294.9896245984506,
        "Satellite Name": "Starlink Shell 1 1318",
        "Satellite Number": 1318,
        "Semi-Major Axis(m)": 6931778.249405717,
        "Time(s)": 200
    },
    {
        "Altitude(m)": 557560.3904620551,
        "Argument of Periapsis(deg)": 0.007320148069735974,
        "Eccentricity": 0.0,
        "Inclination(deg)": 53.0,
        "Latitude(deg)": -15.668104533292052,
        "Longitude(deg)": -177.9919808734675,
        "Mean Anomaly(deg)": -19.563844725309046,
        "RAAN(deg)": 294.9891058283731,
        "Satellite Name": "Starlink Shell 1 1318",
        "Satellite Number": 1318,
        "Semi-Major Axis(m)": 6931778.249405717,
        "Time(s)": 210
    },
    {
        "Altitude(m)": 557418.9549854009,
        "Argument of Periapsis(deg)": 0.007668726549247212,
        "Eccentricity": 0.0,
        "Inclination(deg)": 53.0,
        "Latitude(deg)": -15.175779428044006,
        "Longitude(deg)": -177.6284658294405,
        "Mean Anomaly(deg)": -18.9370135217523,
        "RAAN(deg)": 294.9885870582956,
        "Satellite Name": "Starlink Shell 1 1318",
        "Satellite Number": 1318,
        "Semi-Major Axis(m)": 6931778.249405717,
        "Time(s)": 220
    },
    {
        "Altitude(m)": 557279.4803009066,
        "Argument of Periapsis(deg)": 0.00801730502875845,
        "Eccentricity": 0.0,
        "Inclination(deg)": 53.0,
        "Latitude(deg)": -14.682695273451213,
        "Longitude(deg)": -177.26681012867056,
        "Mean Anomaly(deg)": -18.310182318195555,
        "RAAN(deg)": 294.98806828821813,
        "Satellite Name": "Starlink Shell 1 1318",
        "Satellite Number": 1318,
        "Semi-Major Axis(m)": 6931778.249405717,
        "Time(s)": 230
    },
    {
        "Altitude(m)": 557142.0113785581,
        "Argument of Periapsis(deg)": 0.008365883508269684,
        "Eccentricity": 0.0,
        "Inclination(deg)": 53.0,
        "Latitude(deg)": -14.188880413082655,
        "Longitude(deg)": -176.90694450282388,
        "Mean Anomaly(deg)": -17.68335111463891,
        "RAAN(deg)": 294.9875495181407,
        "Satellite Name": "Starlink Shell 1 1318",
        "Satellite Number": 1318,
        "Semi-Major Axis(m)": 6931778.249405717,
        "Time(s)": 240
    },
    {
        "Altitude(m)": 557006.5921476344,
        "Argument of Periapsis(deg)": 0.008714461987780921,
        "Eccentricity": 0.0,
        "Inclination(deg)": 53.0,
        "Latitude(deg)": -13.694362804557635,
        "Longitude(deg)": -176.54880094281899,
        "Mean Anomaly(deg)": -17.05651991108211,
        "RAAN(deg)": 294.9870307480632,
        "Satellite Name": "Starlink Shell 1 1318",
        "Satellite Number": 1318,
        "Semi-Major Axis(m)": 6931778.249405717,
        "Time(s)": 250
    },
    {
        "Altitude(m)": 556873.2654775716,
        "Argument of Periapsis(deg)": 0.009063040467292158,
        "Eccentricity": 0.0,
        "Inclination(deg)": 53.0,
        "Latitude(deg)": -13.199170035961206,
        "Longitude(deg)": -176.1923121678394,
        "Mean Anomaly(deg)": -16.429688707525365,
        "RAAN(deg)": 294.98651197798574,
        "Satellite Name": "Starlink Shell 1 1318",
        "Satellite Number": 1318,
        "Semi-Major Axis(m)": 6931778.249405717,
        "Time(s)": 260
    },
    {
        "Altitude(m)": 556742.0731593741,
        "Argument of Periapsis(deg)": 0.009411618946803396,
        "Eccentricity": 0.0,
        "Inclination(deg)": 53.0,
        "Latitude(deg)": -12.703329341927033,
        "Longitude(deg)": -175.83741109433714,
        "Mean Anomaly(deg)": -15.802857503968719,
        "RAAN(deg)": 294.9859932079082,
        "Satellite Name": "Starlink Shell 1 1318",
        "Satellite Number": 1318,
        "Semi-Major Axis(m)": 6931778.249405717,
        "Time(s)": 270
    },
    {
        "Altitude(m)": 556613.0558875247,
        "Argument of Periapsis(deg)": 0.009760197426314633,
        "Eccentricity": 0.0,
        "Inclination(deg)": 53.0,
        "Latitude(deg)": -12.206867619398952,
        "Longitude(deg)": -175.48403181791778,
        "Mean Anomaly(deg)": -15.176026300412024,
        "RAAN(deg)": 294.98547443783076,
        "Satellite Name": "Starlink Shell 1 1318",
        "Satellite Number": 1318,
        "Semi-Major Axis(m)": 6931778.249405717,
        "Time(s)": 280
    },
    {
        "Altitude(m)": 556486.2532424794,
        "Argument of Periapsis(deg)": 0.01010877590582587,
        "Eccentricity": 0.0,
        "Inclination(deg)": 53.0,
        "Latitude(deg)": -11.70981144308822,
        "Longitude(deg)": -175.13210908237778,
        "Mean Anomaly(deg)": -14.549195096855225,
        "RAAN(deg)": 294.98495566775335,
        "Satellite Name": "Starlink Shell 1 1318",
        "Satellite Number": 1318,
        "Semi-Major Axis(m)": 6931778.249405717,
        "Time(s)": 290
    },
    {
        "Altitude(m)": 556361.7036736722,
        "Argument of Periapsis(deg)": 0.010457354385337106,
        "Eccentricity": 0.0,
        "Inclination(deg)": 53.0,
        "Latitude(deg)": -11.212187080636978,
        "Longitude(deg)": -174.78157774877994,
        "Mean Anomaly(deg)": -13.922363893298531,
        "RAAN(deg)": 294.98443689767583,
        "Satellite Name": "Starlink Shell 1 1318",
        "Satellite Number": 1318,
        "Semi-Major Axis(m)": 6931778.249405717,
        "Time(s)": 300
    },
    {
        "Altitude(m)": 556239.4444830891,
        "Argument of Periapsis(deg)": 0.010805932864848343,
        "Eccentricity": 0.0,
        "Inclination(deg)": 53.0,
        "Latitude(deg)": -10.71402050749543,
        "Longitude(deg)": -174.4323737774502,
        "Mean Anomaly(deg)": -13.295532689741835,
        "RAAN(deg)": 294.9839181275984,
        "Satellite Name": "Starlink Shell 1 1318",
        "Satellite Number": 1318,
        "Semi-Major Axis(m)": 6931778.249405717,
        "Time(s)": 310
    },
    {
        "Altitude(m)": 556119.511809425,
        "Argument of Periapsis(deg)": 0.01115451134435958,
        "Eccentricity": 0.0,
        "Inclination(deg)": 53.0,
        "Latitude(deg)": -10.215337421533473,
        "Longitude(deg)": -174.084433697162,
        "Mean Anomaly(deg)": -12.668701486185139,
        "RAAN(deg)": 294.9833993575209,
        "Satellite Name": "Starlink Shell 1 1318",
        "Satellite Number": 1318,
        "Semi-Major Axis(m)": 6931778.249405717,
        "Time(s)": 320
    },
    {
        "Altitude(m)": 556001.940612807,
        "Argument of Periapsis(deg)": 0.011503089823870818,
        "Eccentricity": 0.0,
        "Inclination(deg)": 53.0,
        "Latitude(deg)": -9.716163257394165,
        "Longitude(deg)": -173.73769407438678,
        "Mean Anomaly(deg)": -12.041870282628343,
        "RAAN(deg)": 294.98288058744345,
        "Satellite Name": "Starlink Shell 1 1318",
        "Satellite Number": 1318,
        "Semi-Major Axis(m)": 6931778.249405717,
        "Time(s)": 330
    },
    {
        "Altitude(m)": 555886.7646600734,
        "Argument of Periapsis(deg)": 0.011851668303382053,
        "Eccentricity": 0.0,
        "Inclination(deg)": 53.0,
        "Latitude(deg)": -9.216523200599367,
        "Longitude(deg)": -173.3920924954903,
        "Mean Anomaly(deg)": -11.415039079071699,
        "RAAN(deg)": 294.9823618173659,
        "Satellite Name": "Starlink Shell 1 1318",
        "Satellite Number": 1318,
        "Semi-Major Axis(m)": 6931778.249405717,
        "Time(s)": 340
    },
    {
        "Altitude(m)": 555774.0165107115,
        "Argument of Periapsis(deg)": 0.012200246782893292,
        "Eccentricity": 0.0,
        "Inclination(deg)": 53.0,
        "Latitude(deg)": -8.71644220142473,
        "Longitude(deg)": -173.04756703613356,
        "Mean Anomaly(deg)": -10.788207875515052,
        "RAAN(deg)": 294.98184304728846,
        "Satellite Name": "Starlink Shell 1 1318",
        "Satellite Number": 1318,
        "Semi-Major Axis(m)": 6931778.249405717,
        "Time(s)": 350
    },
    {
        "Altitude(m)": 555663.7275033136,
        "Argument of Periapsis(deg)": 0.012548825262404526,
        "Eccentricity": 0.0,
        "Inclination(deg)": 53.0,
        "Latitude(deg)": -8.21594498855409,
        "Longitude(deg)": -172.7040557307554,
        "Mean Anomaly(deg)": -10.161376671958255,
        "RAAN(deg)": 294.981324277211,
        "Satellite Name": "Starlink Shell 1 1318",
        "Satellite Number": 1318,
        "Semi-Major Axis(m)": 6931778.249405717,
        "Time(s)": 360
    },
    {
        "Altitude(m)": 555555.9277427136,
        "Argument of Periapsis(deg)": 0.012897403741915765,
        "Eccentricity": 0.0,
        "Inclination(deg)": 53.0,
        "Latitude(deg)": -7.71505608252247,
        "Longitude(deg)": -172.3614975550109,
        "Mean Anomaly(deg)": -9.53454546840151,
        "RAAN(deg)": 294.98080550713354,
        "Satellite Name": "Starlink Shell 1 1318",
        "Satellite Number": 1318,
        "Semi-Major Axis(m)": 6931778.249405717,
        "Time(s)": 370
    }
]